start=new Date('2022-06-29T00:00:00.000Z').valueOf();
sats=[{"PERIAPSIS":"456.403","REF_FRAME":"TEME","MEAN_ELEMENT_THEORY":"SGP4","MEAN_MOTION":"15.36183247","EPHEMERIS_TYPE":"0","ECCENTRICITY":"0.00014740","EPOCH":"2022-06-28T22:00:00.999936","ARG_OF_PERICENTER":"49.2891","MEAN_MOTION_DDOT":"0.0000000000000","CLASSIFICATION_TYPE":"U","CENTER_NAME":"EARTH","OBJECT_ID":"2022-041AE","FILE":"3504942","ELEMENT_SET_NO":"999","TIME_SYSTEM":"UTC","RA_OF_ASC_NODE":"40.3178","SITE":"AFETR","MEAN_MOTION_DOT":"-0.00721293","PERIOD":"93.739","DECAY_DATE":null,"COUNTRY_CODE":"US","BSTAR":"-0.02183900000000","NORAD_CAT_ID":"52289","APOAPSIS":"458.418","REV_AT_EPOCH":"130","INCLINATION":"53.2174","MEAN_ANOMALY":"29.3082","OBJECT_NAME":"STARLINK-3751","RCS_SIZE":"LARGE","TLE_LINE2":"2 52289  53.2174  40.3178 0001474  49.2891  29.3082 15.36183247  1300","SEMIMAJOR_AXIS":"6835.545","GP_ID":"207062418","OBJECT_TYPE":"PAYLOAD","TLE_LINE1":"1 52289U 22041AE  22179.91667824 -.00721293  00000-0 -21839-1 0  9999","LAUNCH_DATE":"2022-04-21"},{"MEAN_ELEMENT_THEORY":"SGP4","MEAN_MOTION":"15.37516340","EPHEMERIS_TYPE":"0","REF_FRAME":"TEME","PERIAPSIS":"452.443","ECCENTRICITY":"0.00014860","EPOCH":"2022-06-28T22:00:00.999936","MEAN_MOTION_DDOT":"0.0000000000000","CENTER_NAME":"EARTH","CLASSIFICATION_TYPE":"U","OBJECT_ID":"2022-041AF","FILE":"3504942","ARG_OF_PERICENTER":"54.3296","RA_OF_ASC_NODE":"40.3798","SITE":"AFETR","MEAN_MOTION_DOT":"-0.00720174","ELEMENT_SET_NO":"999","TIME_SYSTEM":"UTC","DECAY_DATE":null,"COUNTRY_CODE":"US","BSTAR":"-0.02087800000000","NORAD_CAT_ID":"52290","PERIOD":"93.658","APOAPSIS":"454.474","REV_AT_EPOCH":"130","INCLINATION":"53.2172","TLE_LINE2":"2 52290  53.2172  40.3798 0001486  54.3296  71.1164 15.37516340  1308","SEMIMAJOR_AXIS":"6831.593","GP_ID":"207062576","TLE_LINE1":"1 52290U 22041AF  22179.91667824 -.00720174  00000-0 -20878-1 0  9990","OBJECT_TYPE":"PAYLOAD","LAUNCH_DATE":"2022-04-21","MEAN_ANOMALY":"71.1164","OBJECT_NAME":"STARLINK-3772","RCS_SIZE":"LARGE"},{"ARG_OF_PERICENTER":"59.9494","OBJECT_ID":"2022-041AG","FILE":"3504942","MEAN_MOTION_DDOT":"0.0000000000000","CLASSIFICATION_TYPE":"U","CENTER_NAME":"EARTH","TIME_SYSTEM":"UTC","ELEMENT_SET_NO":"999","SITE":"AFETR","RA_OF_ASC_NODE":"40.3367","MEAN_MOTION_DOT":"-0.00721047","REF_FRAME":"TEME","PERIAPSIS":"455.314","EPHEMERIS_TYPE":"0","MEAN_ELEMENT_THEORY":"SGP4","MEAN_MOTION":"15.36579561","EPOCH":"2022-06-28T22:00:00.999936","ECCENTRICITY":"0.00013480","INCLINATION":"53.2173","OBJECT_NAME":"STARLINK-3773","RCS_SIZE":"LARGE","MEAN_ANOMALY":"32.9423","OBJECT_TYPE":"PAYLOAD","TLE_LINE1":"1 52291U 22041AG  22179.91667824 -.00721047  00000-0 -21553-1 0  9992","LAUNCH_DATE":"2022-04-21","TLE_LINE2":"2 52291  53.2173  40.3367 0001348  59.9494  32.9423 15.36579561  1306","SEMIMAJOR_AXIS":"6834.370","GP_ID":"207062674","PERIOD":"93.715","BSTAR":"-0.02155300000000","NORAD_CAT_ID":"52291","DECAY_DATE":null,"COUNTRY_CODE":"US","APOAPSIS":"457.156","REV_AT_EPOCH":"130"},{"INCLINATION":"53.2172","MEAN_ANOMALY":"77.3559","OBJECT_NAME":"STARLINK-3753","RCS_SIZE":"LARGE","SEMIMAJOR_AXIS":"6830.873","TLE_LINE2":"2 52292  53.2172  40.3902 0001462  56.7945  77.3559 15.37759490  1309","GP_ID":"207062867","TLE_LINE1":"1 52292U 22041AH  22179.91667824 -.00719887  00000-0 -20704-1 0  9999","OBJECT_TYPE":"PAYLOAD","LAUNCH_DATE":"2022-04-21","PERIOD":"93.643","DECAY_DATE":null,"COUNTRY_CODE":"US","BSTAR":"-0.02070400000000","NORAD_CAT_ID":"52292","APOAPSIS":"453.737","REV_AT_EPOCH":"130","ARG_OF_PERICENTER":"56.7945","MEAN_MOTION_DDOT":"0.0000000000000","CLASSIFICATION_TYPE":"U","CENTER_NAME":"EARTH","OBJECT_ID":"2022-041AH","FILE":"3504942","ELEMENT_SET_NO":"999","TIME_SYSTEM":"UTC","SITE":"AFETR","RA_OF_ASC_NODE":"40.3902","MEAN_MOTION_DOT":"-0.00719887","REF_FRAME":"TEME","PERIAPSIS":"451.740","MEAN_ELEMENT_THEORY":"SGP4","MEAN_MOTION":"15.37759490","EPHEMERIS_TYPE":"0","ECCENTRICITY":"0.00014620","EPOCH":"2022-06-28T22:00:00.999936"},{"MEAN_ANOMALY":"59.9209","RCS_SIZE":"LARGE","OBJECT_NAME":"STARLINK-3771","GP_ID":"207062767","SEMIMAJOR_AXIS":"6832.608","TLE_LINE2":"2 52293  53.2172  40.3644 0001478  53.7193  59.9209 15.37173829  1306","LAUNCH_DATE":"2022-04-21","TLE_LINE1":"1 52293U 22041AJ  22179.91667824 -.00720380  00000-0 -21119-1 0  9991","OBJECT_TYPE":"PAYLOAD","INCLINATION":"53.2172","REV_AT_EPOCH":"130","APOAPSIS":"455.483","PERIOD":"93.678","COUNTRY_CODE":"US","DECAY_DATE":null,"NORAD_CAT_ID":"52293","BSTAR":"-0.02111900000000","ELEMENT_SET_NO":"999","TIME_SYSTEM":"UTC","MEAN_MOTION_DOT":"-0.00720380","SITE":"AFETR","RA_OF_ASC_NODE":"40.3644","ARG_OF_PERICENTER":"53.7193","CLASSIFICATION_TYPE":"U","CENTER_NAME":"EARTH","MEAN_MOTION_DDOT":"0.0000000000000","FILE":"3504942","OBJECT_ID":"2022-041AJ","ECCENTRICITY":"0.00014780","EPOCH":"2022-06-28T22:00:00.999936","PERIAPSIS":"453.463","REF_FRAME":"TEME","MEAN_MOTION":"15.37173829","MEAN_ELEMENT_THEORY":"SGP4","EPHEMERIS_TYPE":"0"},{"INCLINATION":"53.2172","GP_ID":"207062229","SEMIMAJOR_AXIS":"6830.287","TLE_LINE2":"2 52294  53.2172  40.3992 0001404  63.6594  76.9490 15.37957542  1300","LAUNCH_DATE":"2022-04-21","TLE_LINE1":"1 52294U 22041AK  22179.91667824 -.00719578  00000-0 -20561-1 0  9999","OBJECT_TYPE":"PAYLOAD","MEAN_ANOMALY":"76.9490","RCS_SIZE":"LARGE","OBJECT_NAME":"STARLINK-3777","COUNTRY_CODE":"US","DECAY_DATE":null,"NORAD_CAT_ID":"52294","BSTAR":"-0.02056100000000","PERIOD":"93.631","REV_AT_EPOCH":"130","APOAPSIS":"453.111","CLASSIFICATION_TYPE":"U","CENTER_NAME":"EARTH","MEAN_MOTION_DDOT":"0.0000000000000","FILE":"3504942","OBJECT_ID":"2022-041AK","ARG_OF_PERICENTER":"63.6594","MEAN_MOTION_DOT":"-0.00719578","RA_OF_ASC_NODE":"40.3992","SITE":"AFETR","ELEMENT_SET_NO":"999","TIME_SYSTEM":"UTC","MEAN_ELEMENT_THEORY":"SGP4","MEAN_MOTION":"15.37957542","EPHEMERIS_TYPE":"0","PERIAPSIS":"451.193","REF_FRAME":"TEME","ECCENTRICITY":"0.00014040","EPOCH":"2022-06-28T22:00:00.999936"},{"INCLINATION":"53.2172","SEMIMAJOR_AXIS":"6832.021","TLE_LINE2":"2 52295  53.2172  40.3735 0001521  56.1486  64.2227 15.37372102  1304","GP_ID":"207062327","TLE_LINE1":"1 52295U 22041AL  22179.91667824 -.00720514  00000-0 -20987-1 0  9994","OBJECT_TYPE":"PAYLOAD","LAUNCH_DATE":"2022-04-21","MEAN_ANOMALY":"64.2227","OBJECT_NAME":"STARLINK-3765","RCS_SIZE":"LARGE","DECAY_DATE":null,"COUNTRY_CODE":"US","BSTAR":"-0.02098700000000","NORAD_CAT_ID":"52295","PERIOD":"93.666","APOAPSIS":"454.925","REV_AT_EPOCH":"130","MEAN_MOTION_DDOT":"0.0000000000000","CENTER_NAME":"EARTH","CLASSIFICATION_TYPE":"U","OBJECT_ID":"2022-041AL","FILE":"3504942","ARG_OF_PERICENTER":"56.1486","RA_OF_ASC_NODE":"40.3735","SITE":"AFETR","MEAN_MOTION_DOT":"-0.00720514","ELEMENT_SET_NO":"999","TIME_SYSTEM":"UTC","MEAN_MOTION":"15.37372102","MEAN_ELEMENT_THEORY":"SGP4","EPHEMERIS_TYPE":"0","REF_FRAME":"TEME","PERIAPSIS":"452.847","ECCENTRICITY":"0.00015210","EPOCH":"2022-06-28T22:00:00.999936"},{"MEAN_ANOMALY":"94.7115","RCS_SIZE":"LARGE","OBJECT_NAME":"STARLINK-3766","GP_ID":"207062518","SEMIMAJOR_AXIS":"6828.528","TLE_LINE2":"2 52296  53.2172  40.4256 0001407  64.7161  94.7115 15.38551872  1300","LAUNCH_DATE":"2022-04-21","OBJECT_TYPE":"PAYLOAD","TLE_LINE1":"1 52296U 22041AM  22179.91667824 -.00719047  00000-0 -20148-1 0  9993","INCLINATION":"53.2172","REV_AT_EPOCH":"130","APOAPSIS":"451.354","PERIOD":"93.595","COUNTRY_CODE":"US","DECAY_DATE":null,"NORAD_CAT_ID":"52296","BSTAR":"-0.02014800000000","ELEMENT_SET_NO":"999","TIME_SYSTEM":"UTC","MEAN_MOTION_DOT":"-0.00719047","SITE":"AFETR","RA_OF_ASC_NODE":"40.4256","ARG_OF_PERICENTER":"64.7161","CLASSIFICATION_TYPE":"U","CENTER_NAME":"EARTH","MEAN_MOTION_DDOT":"0.0000000000000","FILE":"3504942","OBJECT_ID":"2022-041AM","ECCENTRICITY":"0.00014070","EPOCH":"2022-06-28T22:00:00.999936","PERIAPSIS":"449.432","REF_FRAME":"TEME","MEAN_ELEMENT_THEORY":"SGP4","MEAN_MOTION":"15.38551872","EPHEMERIS_TYPE":"0"},{"PERIAPSIS":"452.297","REF_FRAME":"TEME","EPHEMERIS_TYPE":"0","MEAN_ELEMENT_THEORY":"SGP4","MEAN_MOTION":"15.37561298","EPOCH":"2022-06-28T22:00:00.999936","ECCENTRICITY":"0.00015050","ARG_OF_PERICENTER":"54.2152","OBJECT_ID":"2022-041AN","FILE":"3504942","MEAN_MOTION_DDOT":"0.0000000000000","CLASSIFICATION_TYPE":"U","CENTER_NAME":"EARTH","TIME_SYSTEM":"UTC","ELEMENT_SET_NO":"999","RA_OF_ASC_NODE":"40.3814","SITE":"AFETR","MEAN_MOTION_DOT":"-0.00719941","PERIOD":"93.655","BSTAR":"-0.02084000000000","NORAD_CAT_ID":"52297","DECAY_DATE":null,"COUNTRY_CODE":"US","APOAPSIS":"454.353","REV_AT_EPOCH":"130","INCLINATION":"53.2172","OBJECT_NAME":"STARLINK-3758","RCS_SIZE":"LARGE","MEAN_ANOMALY":"73.3848","TLE_LINE1":"1 52297U 22041AN  22179.91667824 -.00719941  00000-0 -20840-1 0  9996","OBJECT_TYPE":"PAYLOAD","LAUNCH_DATE":"2022-04-21","TLE_LINE2":"2 52297  53.2172  40.3814 0001505  54.2152  73.3848 15.37561298  1301","SEMIMAJOR_AXIS":"6831.460","GP_ID":"207062419"},{"OBJECT_NAME":"STARLINK-3760","RCS_SIZE":"LARGE","MEAN_ANOMALY":"99.0944","OBJECT_TYPE":"PAYLOAD","TLE_LINE1":"1 52298U 22041AP  22179.91667824 -.00718841  00000-0 -20011-1 0  9995","LAUNCH_DATE":"2022-04-21","SEMIMAJOR_AXIS":"6827.942","TLE_LINE2":"2 52298  53.2173  40.4343 0001400  66.4214  99.0944 15.38749976  1303","GP_ID":"207062577","INCLINATION":"53.2173","APOAPSIS":"450.763","REV_AT_EPOCH":"130","PERIOD":"93.582","BSTAR":"-0.02001100000000","NORAD_CAT_ID":"52298","DECAY_DATE":null,"COUNTRY_CODE":"US","TIME_SYSTEM":"UTC","ELEMENT_SET_NO":"999","SITE":"AFETR","RA_OF_ASC_NODE":"40.4343","MEAN_MOTION_DOT":"-0.00718841","ARG_OF_PERICENTER":"66.4214","OBJECT_ID":"2022-041AP","FILE":"3504942","MEAN_MOTION_DDOT":"0.0000000000000","CLASSIFICATION_TYPE":"U","CENTER_NAME":"EARTH","EPOCH":"2022-06-28T22:00:00.999936","ECCENTRICITY":"0.00014000","REF_FRAME":"TEME","PERIAPSIS":"448.851","EPHEMERIS_TYPE":"0","MEAN_ELEMENT_THEORY":"SGP4","MEAN_MOTION":"15.38749976"}];
